1998-067XK              
1 65731U 98067XK  26030.81624789  .00203017  00000+0  10397-2 0  9992
2 65731  51.6232 245.9736 0003944 188.0719 172.0219 15.80154245 20866
RSP-03                  
1 65732U 98067XL  26030.83556400  .00424853  79896-4  12909-2 0  9997
2 65732  51.6184 243.0468 0005332 212.7899 147.2777 15.91475705 20919
YOTSUBA-KULOVER         
1 65941U 98067XN  26030.73648961  .00103274  00000+0  88289-3 0  9994
2 65941  51.6252 252.2198 0004328 192.8598 167.2289 15.68647334 17523
BOTAN                   
1 65942U 98067XP  26030.86871545  .00230561  00000+0  12278-2 0  9999
2 65942  51.6192 248.5734 0005441 208.6473 151.4230 15.79207269 17584
E-KAGAKU-1              
1 65943U 98067XQ  26030.86421897  .00094832  00000+0  81352-3 0  9990
2 65943  51.6269 251.5815 0003276 204.2872 155.7971 15.68604781 17546
HRC MONOBLOCK CAMERA    
1 66052U 98067XR  26030.84556420  .00042505  00000+0  55276-3 0  9997
2 66052  51.6281 255.9555 0000280  31.7516 328.3493 15.58342064 16482
HTV-X1                  
1 66174U 25241A   26030.88696234  .00008240  00000+0  16122-3 0  9993
2 66174  51.6324 259.2282 0011081  46.9871 313.2044 15.48295574   516
SZ-21 MODULE            
1 66515U 25246C   26030.83597794  .00032437  00000+0  31391-3 0  9993
2 66515  41.4761  75.8706 0003415 259.1766 100.8691 15.65707701 12131
SHENZHOU-22             
1 66645U 25272A   26030.17114424  .00032690  00000+0  37481-3 0  9995
2 66645  41.4674  82.2287 0009086  36.5911 323.5548 15.61350410267643
SOYUZ-MS 28             
1 66664U 25275A   26030.88696234  .00008240  00000+0  16122-3 0  9994
2 66664  51.6324 259.2282 0011081  46.9871 313.2044 15.48295574  1285
DUPLEX                  
1 66906U 98067XS  26030.92332449  .00028303  00000+0  44212-3 0  9995
2 66906  51.6299 257.9730 0001559  80.7038 279.4129 15.53569248  9258
1998-067XT              
1 66907U 98067XT  26030.82135108  .00088865  00000+0  10835-2 0  9990
2 66907  51.6276 257.2918 0002853 156.8318 203.2804 15.59728325  9253
